NORAD_CAT_ID,OBJECT_NAME,OBJECT_TYPE,EPOCH,MEAN_MOTION,ECCENTRICITY,INCLINATION,RA_OF_ASC_NODE,ARG_OF_PERICENTER,MEAN_ANOMALY,BSTAR,MEAN_MOTION_DOT,MEAN_MOTION_DDOT,TLE_LINE0,TLE_LINE1,TLE_LINE2,SEMIMAJOR_AXIS,PERIOD,APOGEE,PERIGEE,DECAYED
50169.0,STARLINK-3301,PAYLOAD,2024-08-04 15:05:57,15.08852434,0.0001374,53.2169,342.0931,77.5295,282.5851,0.00058426,9.026e-05,0.0,0 STARLINK-3301,1 50169U 21125P   24217.62914093  .00009026  00000-0  58426-3 0  9997,2 50169  53.2169 342.0931 0001374  77.5295 282.5851 15.08852434148735,6917.842,95.437,540.658,538.757,0.0
50169.0,STARLINK-3301,PAYLOAD,2024-08-04 18:16:43,15.08859422,0.0001394,53.217,341.4975,73.3589,286.7556,0.0010888,0.00017092,0.0,0 STARLINK-3301,1 50169U 21125P   24217.76161976  .00017092  00000-0  10888-2 0  9997,2 50169  53.2170 341.4975 0001394  73.3589 286.7556 15.08859422148754,6917.821,95.436,540.65,538.722,0.0
50169.0,STARLINK-3301,PAYLOAD,2024-08-05 13:21:21,15.08853585,0.0001396,53.2186,337.9293,92.1502,267.965,0.00074761,0.00011635,0.0,0 STARLINK-3301,1 50169U 21125P   24218.55650093  .00011635  00000-0  74761-3 0  9996,2 50169  53.2186 337.9293 0001396  92.1502 267.9650 15.08853585145780,6917.839,95.437,540.67,538.738,0.0
50169.0,STARLINK-3301,PAYLOAD,2024-08-05 14:56:44,15.08848527,0.0001395,53.2184,337.631,85.9682,274.147,0.0012816,0.00020172,0.0,0 STARLINK-3301,1 50169U 21125P   24218.62274180  .00020172  00000-0  12816-2 0  9991,2 50169  53.2184 337.6310 0001395  85.9682 274.1470 15.08848527148887,6917.854,95.437,540.684,538.754,0.0
50169.0,STARLINK-3301,PAYLOAD,2024-08-06 00:29:03,15.08845371,0.0001443,53.2184,335.8475,84.9541,275.1616,0.00047613,7.299e-05,0.0,0 STARLINK-3301,1 50169U 21125P   24219.02018088  .00007299  00000-0  47613-3 0  9998,2 50169  53.2184 335.8475 0001443  84.9541 275.1616 15.08845371145857,6917.864,95.437,540.727,538.731,0.0
50169.0,STARLINK-3301,PAYLOAD,2024-08-06 13:12:08,15.08839381,0.0001543,53.2194,333.4715,107.0035,253.1126,0.00011007,1.464e-05,0.0,0 STARLINK-3301,1 50169U 21125P   24219.55010351  .00001464  00000-0  11007-3 0  9997,2 50169  53.2194 333.4715 0001543 107.0035 253.1126 15.08839381145930,6917.882,95.438,540.815,538.68,0.0
50169.0,STARLINK-3301,PAYLOAD,2024-08-06 14:47:32,15.08839828,0.0001343,53.2186,333.1758,99.652,260.4624,0.00013274,1.825e-05,0.0,0 STARLINK-3301,1 50169U 21125P   24219.61634353  .00001825  00000-0  13274-3 0  9997,2 50169  53.2186 333.1758 0001343  99.6520 260.4624 15.08839828149033,6917.881,95.438,540.675,538.817,0.0
50169.0,STARLINK-3301,PAYLOAD,2024-08-07 11:27:32,15.08848639,0.0001285,53.2182,329.3091,95.121,264.9928,0.00036476,5.523e-05,0.0,0 STARLINK-3301,1 50169U 21125P   24220.47746072  .00005523  00000-0  36476-3 0  9993,2 50169  53.2182 329.3091 0001285  95.1210 264.9928 15.08848639149168,6917.854,95.437,540.608,538.83,0.0
50169.0,STARLINK-3301,PAYLOAD,2024-08-08 12:53:42,15.08848129,0.0001527,53.2172,324.5511,75.0529,285.0632,0.00022351,3.272e-05,0.0,0 STARLINK-3301,1 50169U 21125P   24221.53729986  .00003272  00000-0  22351-3 0  9992,2 50169  53.2172 324.5511 0001527  75.0529 285.0632 15.08848129149328,6917.856,95.437,540.777,538.664,0.0
50169.0,STARLINK-3301,PAYLOAD,2024-08-08 14:29:05,15.08852262,0.0001614,53.2181,324.256,68.9815,291.135,0.00033998,5.129e-05,0.0,0 STARLINK-3301,1 50169U 21125P   24221.60353891  .00005129  00000-0  33998-3 0  9990,2 50169  53.2181 324.2560 0001614  68.9815 291.1350 15.08852262146241,6917.843,95.437,540.824,538.591,0.0
50169.0,STARLINK-3301,PAYLOAD,2024-08-09 12:44:29,15.08848154,0.0001314,53.2165,320.089,94.4769,265.6373,0.00014309,1.991e-05,0.0,0 STARLINK-3301,1 50169U 21125P   24222.53089548  .00001991  00000-0  14309-3 0  9996,2 50169  53.2165 320.0890 0001314  94.4769 265.6373 15.08848154146383,6917.855,95.437,540.629,538.811,0.0
50169.0,STARLINK-3301,PAYLOAD,2024-08-09 15:55:15,15.0885872,0.0001286,53.2165,319.4933,95.109,265.0049,0.00075032,0.0001168,0.0,0 STARLINK-3301,1 50169U 21125P   24222.66337340  .00011680  00000-0  75032-3 0  9992,2 50169  53.2165 319.4933 0001286  95.1090 265.0049 15.08858720149495,6917.823,95.436,540.578,538.799,0.0
50169.0,STARLINK-3301,PAYLOAD,2024-08-10 12:35:17,15.08837019,0.0001619,53.2168,315.6295,90.1439,269.9739,0.000636,9.848e-05,0.0,0 STARLINK-3301,1 50169U 21125P   24223.52450475  .00009848  00000-0  63600-3 0  9994,2 50169  53.2168 315.6295 0001619  90.1439 269.9739 15.08837019146538,6917.89,95.438,540.875,538.634,0.0
50169.0,STARLINK-3301,PAYLOAD,2024-08-11 12:26:04,15.08853137,0.0002665,53.2165,311.165,93.6606,266.4691,0.0013704,0.00021598,0.0,0 STARLINK-3301,1 50169U 21125P   24224.51811002  .00021598  00000-0  13704-2 0  9996,2 50169  53.2165 311.1650 0002665  93.6606 266.4691 15.08853137146681,6917.84,95.437,541.549,537.862,0.0
50169.0,STARLINK-3301,PAYLOAD,2024-08-11 15:36:50,15.08854641,0.0002225,53.2165,310.5705,97.1118,263.0127,0.0011649,0.00018308,0.0,0 STARLINK-3301,1 50169U 21125P   24224.65058857  .00018308  00000-0  11649-2 0  9993,2 50169  53.2165 310.5705 0002225  97.1118 263.0127 15.08854641149797,6917.836,95.437,541.24,538.161,0.0
50169.0,STARLINK-3301,PAYLOAD,2024-08-12 05:55:18,15.08856389,0.000161,53.2153,307.8988,76.8596,283.2576,0.00064423,9.984e-05,0.0,0 STARLINK-3301,1 50169U 21125P   24225.24674389  .00009984  00000-0  64423-3 0  9992,2 50169  53.2153 307.8988 0001610  76.8596 283.2576 15.08856389146797,6917.83,95.437,540.809,538.582,0.0
50169.0,STARLINK-3301,PAYLOAD,2024-08-12 12:16:50,15.08898492,0.0001384,53.2159,306.7086,83.321,276.7939,0.0019308,0.00030624,0.0,0 STARLINK-3301,1 50169U 21125P   24225.51169109  .00030624  00000-0  19308-2 0  9997,2 50169  53.2159 306.7086 0001384  83.3210 276.7939 15.08898492146830,6917.702,95.434,540.524,538.609,0.0
50169.0,STARLINK-3301,PAYLOAD,2024-08-13 05:46:04,15.08804474,0.000266,53.2143,303.4311,311.3106,48.7657,-0.0019026,-0.00030413,0.0,0 STARLINK-3301,1 50169U 21125P   24226.24033141 -.00030413  00000-0 -19026-2 0  9999,2 50169  53.2143 303.4311 0002660 311.3106  48.7657 15.08804474146947,6917.989,95.44,541.694,538.014,0.0
50169.0,STARLINK-3301,PAYLOAD,2024-08-13 12:07:38,15.08735771,0.0001344,53.215,302.2453,97.9179,262.1965,-0.003289,-0.00052105,0.0,0 STARLINK-3301,1 50169U 21125P   24226.50530701 -.00052105  00000-0 -32890-2 0  9998,2 50169  53.2150 302.2453 0001344  97.9179 262.1965 15.08735771146985,6918.199,95.444,540.994,539.134,0.0
50169.0,STARLINK-3301,PAYLOAD,2024-08-13 21:39:59,15.08776424,8.13e-05,53.2168,300.4618,86.512,273.5965,5.1402e-05,5.29e-06,0.0,0 STARLINK-3301,1 50169U 21125P   24226.90276861  .00000529  00000-0  51402-4 0  9999,2 50169  53.2168 300.4618 0000813  86.5120 273.5965 15.08776424150135,6918.075,95.442,540.502,539.377,0.0
50169.0,STARLINK-3301,PAYLOAD,2024-08-14 05:36:55,15.08812368,7.35e-05,53.2165,298.973,35.8076,324.2965,0.0024333,0.00038621,0.0,0 STARLINK-3301,1 50169U 21125P   24227.23397626  .00038621  00000-0  24333-2 0  9994,2 50169  53.2165 298.9730 0000735  35.8076 324.2965 15.08812368147091,6917.965,95.439,540.338,539.321,0.0
50169.0,STARLINK-3301,PAYLOAD,2024-08-14 11:58:27,15.08848756,0.0001353,53.2175,297.7882,75.7558,284.3584,0.0024672,0.00039206,0.0,0 STARLINK-3301,1 50169U 21125P   24227.49893382  .00039206  00000-0  24672-2 0  9998,2 50169  53.2175 297.7882 0001353  75.7558 284.3584 15.08848756147130,6917.854,95.437,540.655,538.783,0.0
50169.0,STARLINK-3301,PAYLOAD,2024-08-14 21:30:45,15.08865236,0.0001281,53.2155,296.0054,77.1182,282.9953,0.0003337,5.031e-05,0.0,0 STARLINK-3301,1 50169U 21125P   24227.89636414  .00005031  00000-0  33370-3 0  9998,2 50169  53.2155 296.0054 0001281  77.1182 282.9953 15.08865236150286,6917.803,95.436,540.554,538.782,0.0
50169.0,STARLINK-3301,PAYLOAD,2024-08-15 10:13:50,15.08848732,0.0001233,53.2166,293.6277,76.6967,283.4163,0.00060144,9.299e-05,0.0,0 STARLINK-3301,1 50169U 21125P   24228.42628421  .00009299  00000-0  60144-3 0  9996,2 50169  53.2166 293.6277 0001233  76.6967 283.4163 15.08848732150360,6917.854,95.437,540.572,538.866,0.0
50169.0,STARLINK-3301,PAYLOAD,2024-08-15 21:21:32,15.08836941,0.0001302,53.2158,291.5392,75.6458,284.4678,0.0001561,2.197e-05,0.0,0 STARLINK-3301,1 50169U 21125P   24228.88996313  .00002197  00000-0  15610-3 0  9992,2 50169  53.2158 291.5392 0001302  75.6458 284.4678 15.08836941147342,6917.89,95.438,540.655,538.854,0.0
50169.0,STARLINK-3301,PAYLOAD,2024-08-16 10:04:37,15.08851171,0.0001185,53.2151,289.1655,83.2333,276.8794,-5.486e-05,-1.161e-05,0.0,0 STARLINK-3301,1 50169U 21125P   24229.41987270 -.00001161  00000-0 -54860-4 0  9997,2 50169  53.2151 289.1655 0001185  83.2333 276.8794 15.08851171147421,6917.846,95.437,540.531,538.891,0.0
50169.0,STARLINK-3301,PAYLOAD,2024-08-17 03:33:51,15.08844669,9.1e-05,53.2141,285.8918,77.4867,282.6227,6.7236e-06,-1.81e-06,0.0,0 STARLINK-3301,1 50169U 21125P   24230.14851394 -.00000181  00000-0  67236-5 0  9998,2 50169  53.2141 285.8918 0000910  77.4867 282.6227 15.08844669147539,6917.866,95.437,540.361,539.102,0.0
50169.0,STARLINK-3301,PAYLOAD,2024-08-17 09:55:24,15.08844874,0.0001115,53.2143,284.7008,85.7943,274.3176,-2.8529e-05,-7.42e-06,0.0,0 STARLINK-3301,1 50169U 21125P   24230.41347478 -.00000742  00000-0 -28529-4 0  9996,2 50169  53.2143 284.7008 0001115  85.7943 274.3176 15.08844874150661,6917.865,95.437,540.502,538.959,0.0
50169.0,STARLINK-3301,PAYLOAD,2024-08-18 12:56:56,15.08854032,0.0001472,53.2159,279.6455,96.1327,263.9833,0.00030452,4.564e-05,0.0,0 STARLINK-3301,1 50169U 21125P   24231.53954834  .00004564  00000-0  30452-3 0  9991,2 50169  53.2159 279.6455 0001472  96.1327 263.9833 15.08854032147741,6917.837,95.437,540.721,538.684,0.0
50169.0,STARLINK-3301,PAYLOAD,2024-08-19 04:50:50,15.08767989,0.0001493,53.2148,276.6726,83.5542,276.562,-0.0011062,-0.00017815,0.0,0 STARLINK-3301,1 50169U 21125P   24232.20197851 -.00017815  00000-0 -11062-2 0  9994,2 50169  53.2148 276.6726 0001493  83.5542 276.5620 15.08767989147848,6918.101,95.442,540.998,538.933,0.0
